[{"OBJECT_NAME":"STARLINK-1420","OBJECT_ID":"2020-035AQ","EPOCH":"2026-03-10T00:00:02.999808","MEAN_MOTION":15.53743401,"ECCENTRICITY":0.00043485,"INCLINATION":53.0536,"RA_OF_ASC_NODE":20.9202,"ARG_OF_PERICENTER":112.4673,"MEAN_ANOMALY":249.9349,"EPHEMERIS_TYPE":0,"CLASSIFICATION_TYPE":"U","NORAD_CAT_ID":45695,"ELEMENT_SET_NO":999,"REV_AT_EPOCH":587,"BSTAR":0.0013975342,"MEAN_MOTION_DOT":0.00091715,"MEAN_MOTION_DDOT":0},{"OBJECT_NAME":"SITRO-AIS 42","OBJECT_ID":"2024-199X","EPOCH":"2026-03-09T22:21:47.562336","MEAN_MOTION":15.56144325,"ECCENTRICITY":0.0004269,"INCLINATION":97.3087,"RA_OF_ASC_NODE":305.2142,"ARG_OF_PERICENTER":282.8573,"MEAN_ANOMALY":77.2205,"EPHEMERIS_TYPE":0,"CLASSIFICATION_TYPE":"U","NORAD_CAT_ID":61756,"ELEMENT_SET_NO":999,"REV_AT_EPOCH":12230,"BSTAR":0.00091920276,"MEAN_MOTION_DOT":0.00064603,"MEAN_MOTION_DDOT":0}]
